[{"OBJECT_NAME":"AEROCUBE 5C","OBJECT_ID":"2015-058B","EPOCH":"2026-03-09T17:05:14.563104","MEAN_MOTION":14.90857126,"ECCENTRICITY":0.01306722,"INCLINATION":64.7674,"RA_OF_ASC_NODE":211.9094,"ARG_OF_PERICENTER":102.486,"MEAN_ANOMALY":259.0908,"EPHEMERIS_TYPE":0,"CLASSIFICATION_TYPE":"U","NORAD_CAT_ID":40965,"ELEMENT_SET_NO":999,"REV_AT_EPOCH":35082,"BSTAR":0.0004279104,"MEAN_MOTION_DOT":4.804e-5,"MEAN_MOTION_DDOT":0},{"OBJECT_NAME":"KUIPER-00056","OBJECT_ID":"2025-134S","EPOCH":"2026-03-09T14:44:55.990752","MEAN_MOTION":14.83541877,"ECCENTRICITY":9.82e-5,"INCLINATION":51.9023,"RA_OF_ASC_NODE":223.5207,"ARG_OF_PERICENTER":62.1388,"MEAN_ANOMALY":297.9675,"EPHEMERIS_TYPE":0,"CLASSIFICATION_TYPE":"U","NORAD_CAT_ID":64516,"ELEMENT_SET_NO":999,"REV_AT_EPOCH":4020,"BSTAR":0.00069839,"MEAN_MOTION_DOT":5.582e-5,"MEAN_MOTION_DDOT":0}]
