AEROCUBE 5C             
1 40965U 15058B   26068.71197411  .00004804  00000+0  42791-3 0  9997
2 40965  64.7674 211.9094 0130672 102.4860 259.0908 14.90857126350820
KUIPER-00056            
1 64516U 25134S   26068.61453693  .00005582  00000+0  69839-3 0  9993
2 64516  51.9023 223.5207 0000982  62.1388 297.9675 14.83541877 40201
